CCSDS_OMM_VERS = 2.0
CREATION_DATE  = 
ORIGINATOR     = 

OBJECT_NAME    = STARLINK-37076
OBJECT_ID      = 2026-050G
CENTER_NAME    = EARTH
REF_FRAME      = TEME
TIME_SYSTEM    = UTC
MEAN_ELEMENT_THEORY = SGP/SGP4

EPOCH          = 2026-04-04T16:01:23.492928
MEAN_MOTION    = 15.80864050
ECCENTRICITY   = .00016542
INCLINATION    = 53.1572
RA_OF_ASC_NODE = 151.5976
ARG_OF_PERICENTER = 71.7918
MEAN_ANOMALY   = 288.3285

EPHEMERIS_TYPE = 0
CLASSIFICATION_TYPE = U
NORAD_CAT_ID   = 68173
ELEMENT_SET_NO = 999
REV_AT_EPOCH   = 458
BSTAR          = .41244123E-3
MEAN_MOTION_DOT = .81443E-3
MEAN_MOTION_DDOT = 0

CCSDS_OMM_VERS = 2.0
CREATION_DATE  = 
ORIGINATOR     = 

OBJECT_NAME    = STARLINK-37078
OBJECT_ID      = 2026-050H
CENTER_NAME    = EARTH
REF_FRAME      = TEME
TIME_SYSTEM    = UTC
MEAN_ELEMENT_THEORY = SGP/SGP4

EPOCH          = 2026-04-04T20:33:26.284608
MEAN_MOTION    = 15.80914352
ECCENTRICITY   = .00020556
INCLINATION    = 53.1566
RA_OF_ASC_NODE = 150.6430
ARG_OF_PERICENTER = 78.9757
MEAN_ANOMALY   = 281.1496

EPHEMERIS_TYPE = 0
CLASSIFICATION_TYPE = U
NORAD_CAT_ID   = 68174
ELEMENT_SET_NO = 999
REV_AT_EPOCH   = 461
BSTAR          = .1792411E-2
MEAN_MOTION_DOT = .369318E-2
MEAN_MOTION_DDOT = 0

CCSDS_OMM_VERS = 2.0
CREATION_DATE  = 
ORIGINATOR     = 

OBJECT_NAME    = STARLINK-36886
OBJECT_ID      = 2026-050J
CENTER_NAME    = EARTH
REF_FRAME      = TEME
TIME_SYSTEM    = UTC
MEAN_ELEMENT_THEORY = SGP/SGP4

EPOCH          = 2026-04-04T20:32:20.860800
MEAN_MOTION    = 15.80919408
ECCENTRICITY   = .0000812
INCLINATION    = 53.1571
RA_OF_ASC_NODE = 150.6371
ARG_OF_PERICENTER = 55.2768
MEAN_ANOMALY   = 304.8331

EPHEMERIS_TYPE = 0
CLASSIFICATION_TYPE = U
NORAD_CAT_ID   = 68175
ELEMENT_SET_NO = 999
REV_AT_EPOCH   = 461
BSTAR          = .15913882E-2
MEAN_MOTION_DOT = .326254E-2
MEAN_MOTION_DDOT = 0

CCSDS_OMM_VERS = 2.0
CREATION_DATE  = 
ORIGINATOR     = 

OBJECT_NAME    = STARLINK-36905
OBJECT_ID      = 2026-050K
CENTER_NAME    = EARTH
REF_FRAME      = TEME
TIME_SYSTEM    = UTC
MEAN_ELEMENT_THEORY = SGP/SGP4

EPOCH          = 2026-04-04T20:31:16.621536
MEAN_MOTION    = 15.80928079
ECCENTRICITY   = .00020514
INCLINATION    = 53.1566
RA_OF_ASC_NODE = 150.6327
ARG_OF_PERICENTER = 57.3434
MEAN_ANOMALY   = 302.7786

EPHEMERIS_TYPE = 0
CLASSIFICATION_TYPE = U
NORAD_CAT_ID   = 68176
ELEMENT_SET_NO = 999
REV_AT_EPOCH   = 461
BSTAR          = .19610508E-2
MEAN_MOTION_DOT = .406138E-2
MEAN_MOTION_DDOT = 0

CCSDS_OMM_VERS = 2.0
CREATION_DATE  = 
ORIGINATOR     = 

OBJECT_NAME    = STARLINK-36668
OBJECT_ID      = 2026-050L
CENTER_NAME    = EARTH
REF_FRAME      = TEME
TIME_SYSTEM    = UTC
MEAN_ELEMENT_THEORY = SGP/SGP4

EPOCH          = 2026-04-04T20:30:19.027296
MEAN_MOTION    = 15.80296707
ECCENTRICITY   = .00026991
INCLINATION    = 53.1568
RA_OF_ASC_NODE = 150.6279
ARG_OF_PERICENTER = 38.7794
MEAN_ANOMALY   = 321.3422

EPHEMERIS_TYPE = 0
CLASSIFICATION_TYPE = U
NORAD_CAT_ID   = 68177
ELEMENT_SET_NO = 999
REV_AT_EPOCH   = 461
BSTAR          = -.13552145E-2
MEAN_MOTION_DOT = -.253758E-2
MEAN_MOTION_DDOT = 0

CCSDS_OMM_VERS = 2.0
CREATION_DATE  = 
ORIGINATOR     = 

OBJECT_NAME    = STARLINK-36677
OBJECT_ID      = 2026-050M
CENTER_NAME    = EARTH
REF_FRAME      = TEME
TIME_SYSTEM    = UTC
MEAN_ELEMENT_THEORY = SGP/SGP4

EPOCH          = 2026-04-04T20:29:07.034496
MEAN_MOTION    = 15.80929178
ECCENTRICITY   = .00023096
INCLINATION    = 53.1571
RA_OF_ASC_NODE = 150.6219
ARG_OF_PERICENTER = 81.1481
MEAN_ANOMALY   = 278.9803

EPHEMERIS_TYPE = 0
CLASSIFICATION_TYPE = U
NORAD_CAT_ID   = 68178
ELEMENT_SET_NO = 999
REV_AT_EPOCH   = 461
BSTAR          = .19370363E-2
MEAN_MOTION_DOT = .400931E-2
MEAN_MOTION_DDOT = 0

CCSDS_OMM_VERS = 2.0
CREATION_DATE  = 
ORIGINATOR     = 

OBJECT_NAME    = STARLINK-37052
OBJECT_ID      = 2026-050N
CENTER_NAME    = EARTH
REF_FRAME      = TEME
TIME_SYSTEM    = UTC
MEAN_ELEMENT_THEORY = SGP/SGP4

EPOCH          = 2026-04-04T20:28:01.892352
MEAN_MOTION    = 15.80910269
ECCENTRICITY   = .00017547
INCLINATION    = 53.1566
RA_OF_ASC_NODE = 150.6172
ARG_OF_PERICENTER = 54.4677
MEAN_ANOMALY   = 305.6509

EPHEMERIS_TYPE = 0
CLASSIFICATION_TYPE = U
NORAD_CAT_ID   = 68179
ELEMENT_SET_NO = 999
REV_AT_EPOCH   = 461
BSTAR          = .16054261E-2
MEAN_MOTION_DOT = .329099E-2
MEAN_MOTION_DDOT = 0

CCSDS_OMM_VERS = 2.0
CREATION_DATE  = 
ORIGINATOR     = 

OBJECT_NAME    = STARLINK-37035
OBJECT_ID      = 2026-050P
CENTER_NAME    = EARTH
REF_FRAME      = TEME
TIME_SYSTEM    = UTC
MEAN_ELEMENT_THEORY = SGP/SGP4

EPOCH          = 2026-04-04T20:26:56.893632
MEAN_MOTION    = 15.80906657
ECCENTRICITY   = .00010726
INCLINATION    = 53.1567
RA_OF_ASC_NODE = 150.6122
ARG_OF_PERICENTER = 74.4404
MEAN_ANOMALY   = 285.6737

EPHEMERIS_TYPE = 0
CLASSIFICATION_TYPE = U
NORAD_CAT_ID   = 68180
ELEMENT_SET_NO = 999
REV_AT_EPOCH   = 461
BSTAR          = .14794246E-2
MEAN_MOTION_DOT = .302214E-2
MEAN_MOTION_DDOT = 0

CCSDS_OMM_VERS = 2.0
CREATION_DATE  = 
ORIGINATOR     = 

OBJECT_NAME    = STARLINK-37032
OBJECT_ID      = 2026-050Q
CENTER_NAME    = EARTH
REF_FRAME      = TEME
TIME_SYSTEM    = UTC
MEAN_ELEMENT_THEORY = SGP/SGP4

EPOCH          = 2026-04-04T20:25:52.337280
MEAN_MOTION    = 15.80903135
ECCENTRICITY   = .00016219
INCLINATION    = 53.1567
RA_OF_ASC_NODE = 150.6073
ARG_OF_PERICENTER = 90.9632
MEAN_ANOMALY   = 269.1577

EPHEMERIS_TYPE = 0
CLASSIFICATION_TYPE = U
NORAD_CAT_ID   = 68181
ELEMENT_SET_NO = 999
REV_AT_EPOCH   = 461
BSTAR          = .14971556E-2
MEAN_MOTION_DOT = .305924E-2
MEAN_MOTION_DDOT = 0

CCSDS_OMM_VERS = 2.0
CREATION_DATE  = 
ORIGINATOR     = 

OBJECT_NAME    = STARLINK-37082
OBJECT_ID      = 2026-050R
CENTER_NAME    = EARTH
REF_FRAME      = TEME
TIME_SYSTEM    = UTC
MEAN_ELEMENT_THEORY = SGP/SGP4

EPOCH          = 2026-04-04T15:51:40.222944
MEAN_MOTION    = 15.80861267
ECCENTRICITY   = .00015968
INCLINATION    = 53.1571
RA_OF_ASC_NODE = 151.5522
ARG_OF_PERICENTER = 97.3663
MEAN_ANOMALY   = 262.7541

EPHEMERIS_TYPE = 0
CLASSIFICATION_TYPE = U
NORAD_CAT_ID   = 68182
ELEMENT_SET_NO = 999
REV_AT_EPOCH   = 458
BSTAR          = .3836749E-3
MEAN_MOTION_DOT = .75652E-3
MEAN_MOTION_DDOT = 0

CCSDS_OMM_VERS = 2.0
CREATION_DATE  = 
ORIGINATOR     = 

OBJECT_NAME    = STARLINK-37102
OBJECT_ID      = 2026-050S
CENTER_NAME    = EARTH
REF_FRAME      = TEME
TIME_SYSTEM    = UTC
MEAN_ELEMENT_THEORY = SGP/SGP4

EPOCH          = 2026-04-04T15:50:35.392704
MEAN_MOTION    = 15.80861492
ECCENTRICITY   = .00012253
INCLINATION    = 53.1569
RA_OF_ASC_NODE = 151.5473
ARG_OF_PERICENTER = 73.7666
MEAN_ANOMALY   = 286.3492

EPHEMERIS_TYPE = 0
CLASSIFICATION_TYPE = U
NORAD_CAT_ID   = 68183
ELEMENT_SET_NO = 999
REV_AT_EPOCH   = 458
BSTAR          = .38907268E-3
MEAN_MOTION_DOT = .76736E-3
MEAN_MOTION_DDOT = 0

CCSDS_OMM_VERS = 2.0
CREATION_DATE  = 
ORIGINATOR     = 

OBJECT_NAME    = STARLINK-36964
OBJECT_ID      = 2026-050T
CENTER_NAME    = EARTH
REF_FRAME      = TEME
TIME_SYSTEM    = UTC
MEAN_ELEMENT_THEORY = SGP/SGP4

EPOCH          = 2026-04-04T14:18:27.987264
MEAN_MOTION    = 15.80896905
ECCENTRICITY   = .0001129
INCLINATION    = 53.1570
RA_OF_ASC_NODE = 151.8590
ARG_OF_PERICENTER = 69.3468
MEAN_ANOMALY   = 290.7676

EPHEMERIS_TYPE = 0
CLASSIFICATION_TYPE = U
NORAD_CAT_ID   = 68184
ELEMENT_SET_NO = 999
REV_AT_EPOCH   = 457
BSTAR          = .47341E-3
MEAN_MOTION_DOT = .93861E-3
MEAN_MOTION_DDOT = 0

