STARLINK-37076          
1 68173U 26050G   26094.66763302  .00081443  00000+0  41244-3 0  9999
2 68173  53.1572 151.5976 0001654  71.7918 288.3285 15.80864050  4583
STARLINK-37078          
1 68174U 26050H   26094.85655422  .00369318  00000+0  17924-2 0  9991
2 68174  53.1566 150.6430 0002055  78.9757 281.1496 15.80914352  4618
STARLINK-36886          
1 68175U 26050J   26094.85579700  .00326254  00000+0  15914-2 0  9995
2 68175  53.1571 150.6371 0000812  55.2768 304.8331 15.80919408  4616
STARLINK-36905          
1 68176U 26050K   26094.85505349  .00406138  00000+0  19611-2 0  9992
2 68176  53.1566 150.6327 0002051  57.3434 302.7786 15.80928079  4617
STARLINK-36668          
1 68177U 26050L   26094.85438689 -.00253758  00000+0 -13552-2 0  9993
2 68177  53.1568 150.6279 0002699  38.7794 321.3422 15.80296707  4616
STARLINK-36677          
1 68178U 26050M   26094.85355364  .00400931  00000+0  19370-2 0  9991
2 68178  53.1571 150.6219 0002309  81.1481 278.9803 15.80929178  4613
STARLINK-37052          
1 68179U 26050N   26094.85279968  .00329099  00000+0  16054-2 0  9998
2 68179  53.1566 150.6172 0001754  54.4677 305.6509 15.80910269  4611
STARLINK-37035          
1 68180U 26050P   26094.85204738  .00302214  00000+0  14794-2 0  9992
2 68180  53.1567 150.6122 0001072  74.4404 285.6737 15.80906657  4618
STARLINK-37032          
1 68181U 26050Q   26094.85130020  .00305924  00000+0  14972-2 0  9994
2 68181  53.1567 150.6073 0001621  90.9632 269.1577 15.80903135  4617
STARLINK-37082          
1 68182U 26050R   26094.66088221  .00075652  00000+0  38367-3 0  9996
2 68182  53.1571 151.5522 0001596  97.3663 262.7541 15.80861267  4583
STARLINK-37102          
1 68183U 26050S   26094.66013186  .00076736  00000+0  38907-3 0  9999
2 68183  53.1569 151.5473 0001225  73.7666 286.3492 15.80861492  4583
STARLINK-36964          
1 68184U 26050T   26094.59615726  .00093861  00000+0  47341-3 0  9990
2 68184  53.1570 151.8590 0001129  69.3468 290.7676 15.80896905  4572
